{
  "links" : {
    "next" : "https://api.nasa.gov/neo/rest/v1/feed?start_date=2009-08-09&end_date=2009-08-09&detailed=true&api_key=t0TVs3DtDT2H8Oy2Zy8m2eVrNsAVKAexjcZXUckd",
    "prev" : "https://api.nasa.gov/neo/rest/v1/feed?start_date=2009-08-07&end_date=2009-08-07&detailed=true&api_key=t0TVs3DtDT2H8Oy2Zy8m2eVrNsAVKAexjcZXUckd",
    "self" : "https://api.nasa.gov/neo/rest/v1/feed?start_date=2009-08-08&end_date=2009-08-08&detailed=true&api_key=t0TVs3DtDT2H8Oy2Zy8m2eVrNsAVKAexjcZXUckd"
  },
  "element_count" : 9,
  "near_earth_objects" : {
    "2009-08-08" : [ {
      "links" : {
        "self" : "https://api.nasa.gov/neo/rest/v1/neo/3395310?api_key=t0TVs3DtDT2H8Oy2Zy8m2eVrNsAVKAexjcZXUckd"
      },
      "neo_reference_id" : "3395310",
      "name" : "(2007 VM243)",
      "nasa_jpl_url" : "http://ssd.jpl.nasa.gov/sbdb.cgi?sstr=3395310",
      "absolute_magnitude_h" : 21.0,
      "estimated_diameter" : {
        "kilometers" : {
          "estimated_diameter_min" : 0.1677084622,
          "estimated_diameter_max" : 0.3750075218
        },
        "meters" : {
          "estimated_diameter_min" : 167.7084621628,
          "estimated_diameter_max" : 375.0075217981
        },
        "miles" : {
          "estimated_diameter_min" : 0.1042091748,
          "estimated_diameter_max" : 0.2330187988
        },
        "feet" : {
          "estimated_diameter_min" : 550.2246310023,
          "estimated_diameter_max" : 1230.3396778159
        }
      },
      "is_potentially_hazardous_asteroid" : false,
      "close_approach_data" : [ {
        "close_approach_date" : "2009-08-08",
        "epoch_date_close_approach" : 1249714800000,
        "relative_velocity" : {
          "kilometers_per_second" : "14.5809611481",
          "kilometers_per_hour" : "52491.4601331168",
          "miles_per_hour" : "32616.1519921581"
        },
        "miss_distance" : {
          "astronomical" : "0.1984377062",
          "lunar" : "77.1922683716",
          "kilometers" : "29685858",
          "miles" : "18445938"
        },
        "orbiting_body" : "Earth"
      } ],
      "orbital_data" : {
        "orbit_id" : "8",
        "orbit_determination_date" : "2017-04-06 09:05:07",
        "orbit_uncertainty" : "6",
        "minimum_orbit_intersection" : ".153882",
        "jupiter_tisserand_invariant" : "5.686",
        "epoch_osculation" : "2458000.5",
        "eccentricity" : ".3380684431717934",
        "semi_major_axis" : "1.072666413563407",
        "inclination" : "12.25050811212299",
        "ascending_node_longitude" : "353.56829627",
        "orbital_period" : "405.7844969369991",
        "perihelion_distance" : ".7100317490873552",
        "perihelion_argument" : "210.2953129617084",
        "aphelion_distance" : "1.435301078039459",
        "perihelion_time" : "2457818.609222520188",
        "mean_anomaly" : "161.3681162957261",
        "mean_motion" : ".8871704136491261",
        "equinox" : "J2000"
      }
    }, {
      "links" : {
        "self" : "https://api.nasa.gov/neo/rest/v1/neo/3455100?api_key=t0TVs3DtDT2H8Oy2Zy8m2eVrNsAVKAexjcZXUckd"
      },
      "neo_reference_id" : "3455100",
      "name" : "(2009 FF19)",
      "nasa_jpl_url" : "http://ssd.jpl.nasa.gov/sbdb.cgi?sstr=3455100",
      "absolute_magnitude_h" : 21.3,
      "estimated_diameter" : {
        "kilometers" : {
          "estimated_diameter_min" : 0.1460679643,
          "estimated_diameter_max" : 0.3266178974
        },
        "meters" : {
          "estimated_diameter_min" : 146.0679642714,
          "estimated_diameter_max" : 326.6178974458
        },
        "miles" : {
          "estimated_diameter_min" : 0.090762397,
          "estimated_diameter_max" : 0.2029508896
        },
        "feet" : {
          "estimated_diameter_min" : 479.2256199,
          "estimated_diameter_max" : 1071.581062656
        }
      },
      "is_potentially_hazardous_asteroid" : true,
      "close_approach_data" : [ {
        "close_approach_date" : "2009-08-08",
        "epoch_date_close_approach" : 1249714800000,
        "relative_velocity" : {
          "kilometers_per_second" : "12.1065419209",
          "kilometers_per_hour" : "43583.5509151687",
          "miles_per_hour" : "27081.1236228169"
        },
        "miss_distance" : {
          "astronomical" : "0.2914763394",
          "lunar" : "113.3842926025",
          "kilometers" : "43604240",
          "miles" : "27094418"
        },
        "orbiting_body" : "Earth"
      } ],
      "orbital_data" : {
        "orbit_id" : "31",
        "orbit_determination_date" : "2017-04-06 09:00:55",
        "orbit_uncertainty" : "1",
        "minimum_orbit_intersection" : ".00410468",
        "jupiter_tisserand_invariant" : "5.170",
        "epoch_osculation" : "2457800.5",
        "eccentricity" : ".4093554502720387",
        "semi_major_axis" : "1.213050356257196",
        "inclination" : ".5536883832554448",
        "ascending_node_longitude" : "84.34506342365722",
        "orbital_period" : "487.996459846045",
        "perihelion_distance" : ".7164815814688749",
        "perihelion_argument" : "245.3733903070446",
        "aphelion_distance" : "1.709619131045518",
        "perihelion_time" : "2457988.234503382648",
        "mean_anomaly" : "221.5063288797727",
        "mean_motion" : ".7377102696883788",
        "equinox" : "J2000"
      }
    }, {
      "links" : {
        "self" : "https://api.nasa.gov/neo/rest/v1/neo/3464007?api_key=t0TVs3DtDT2H8Oy2Zy8m2eVrNsAVKAexjcZXUckd"
      },
      "neo_reference_id" : "3464007",
      "name" : "(2009 OF)",
      "nasa_jpl_url" : "http://ssd.jpl.nasa.gov/sbdb.cgi?sstr=3464007",
      "absolute_magnitude_h" : 21.5,
      "estimated_diameter" : {
        "kilometers" : {
          "estimated_diameter_min" : 0.1332155667,
          "estimated_diameter_max" : 0.2978790628
        },
        "meters" : {
          "estimated_diameter_min" : 133.2155666981,
          "estimated_diameter_max" : 297.8790627982
        },
        "miles" : {
          "estimated_diameter_min" : 0.0827762899,
          "estimated_diameter_max" : 0.1850934111
        },
        "feet" : {
          "estimated_diameter_min" : 437.0589598459,
          "estimated_diameter_max" : 977.2935443908
        }
      },
      "is_potentially_hazardous_asteroid" : true,
      "close_approach_data" : [ {
        "close_approach_date" : "2009-08-08",
        "epoch_date_close_approach" : 1249714800000,
        "relative_velocity" : {
          "kilometers_per_second" : "10.8909668413",
          "kilometers_per_hour" : "39207.4806287934",
          "miles_per_hour" : "24362.0037273744"
        },
        "miss_distance" : {
          "astronomical" : "0.0395786848",
          "lunar" : "15.3961076736",
          "kilometers" : "5920887",
          "miles" : "3679068.5"
        },
        "orbiting_body" : "Earth"
      } ],
      "orbital_data" : {
        "orbit_id" : "24",
        "orbit_determination_date" : "2017-04-06 09:00:22",
        "orbit_uncertainty" : "4",
        "minimum_orbit_intersection" : ".00556992",
        "jupiter_tisserand_invariant" : "3.274",
        "epoch_osculation" : "2458000.5",
        "eccentricity" : ".5989381702508891",
        "semi_major_axis" : "2.352438830364186",
        "inclination" : "9.373661156252869",
        "ascending_node_longitude" : "126.9046130699472",
        "orbital_period" : "1317.880208775013",
        "perihelion_distance" : ".9434734216787187",
        "perihelion_argument" : "218.0410053256724",
        "aphelion_distance" : "3.761404239049654",
        "perihelion_time" : "2457717.626577342920",
        "mean_anomaly" : "77.27138739810455",
        "mean_motion" : ".2731659505947241",
        "equinox" : "J2000"
      }
    } ]
  }
}